{
  "type": "FeatureCollection",
  "features": [
    {
      "type": "Feature",
      "properties": {
        "norad_id": 33376,
        "name": "GALAXY 19 (G-19)",
        "group": "intelsat",
        "lat": -0.027797466951457205,
        "lon": -114.79071238839597,
        "alt_km": 35776.63840884413,
        "timestamp": "2025-12-19T16:54:43.918759+00:00",
        "meta_object_name": "GALAXY 19 (G-19)",
        "meta_object_id": "2008-045A",
        "meta_epoch": "2025-12-19T06:01:51.136320",
        "meta_mean_motion": 1.0027165,
        "meta_eccentricity": 0.000251,
        "meta_inclination": 0.0168,
        "meta_ra_of_asc_node": 289.9778,
        "meta_arg_of_pericenter": 342.0369,
        "meta_mean_anomaly": 169.5516,
        "meta_ephemeris_type": 0,
        "meta_classification_type": "U",
        "meta_norad_cat_id": 33376,
        "meta_element_set_no": 999,
        "meta_rev_at_epoch": 6310,
        "meta_bstar": 0,
        "meta_mean_motion_dot": -1.14e-06,
        "meta_mean_motion_ddot": 0,
        "tle_line1": "1 33376U 08045A   25353.25128630 -.00000114  00000+0  00000+0 0  9999",
        "tle_line2": "2 33376   0.0168 289.9778 0002510 342.0369 169.5516  1.00271650 63109"
      },
      "geometry": {
        "type": "Point",
        "coordinates": [
          -114.79071238839597,
          -0.027797466951457205
        ]
      }
    },
    {
      "type": "Feature",
      "properties": {
        "norad_id": 35493,
        "name": "FM-5",
        "group": "intelsat",
        "lat": -0.03070525537633376,
        "lon": -103.91037654337038,
        "alt_km": 35787.11829163681,
        "timestamp": "2025-12-19T16:54:43.918771+00:00",
        "meta_object_name": "FM-5",
        "meta_object_id": "2009-034A",
        "meta_epoch": "2025-12-19T06:08:38.539968",
        "meta_mean_motion": 1.00271831,
        "meta_eccentricity": 9.133e-05,
        "meta_inclination": 0.0183,
        "meta_ra_of_asc_node": 297.901,
        "meta_arg_of_pericenter": 213.0729,
        "meta_mean_anomaly": 303.1516,
        "meta_ephemeris_type": 0,
        "meta_classification_type": "U",
        "meta_norad_cat_id": 35493,
        "meta_element_set_no": 999,
        "meta_rev_at_epoch": 4484,
        "meta_bstar": 0,
        "meta_mean_motion_dot": -1.76e-06,
        "meta_mean_motion_ddot": 0,
        "tle_line1": "1 35493U 09034A   25353.25600162 -.00000176  00000+0  00000+0 0  9993",
        "tle_line2": "2 35493   0.0183 297.9010 0000913 213.0729 303.1516  1.00271831 44845"
      },
      "geometry": {
        "type": "Point",
        "coordinates": [
          -103.91037654337038,
          -0.03070525537633376
        ]
      }
    },
    {
      "type": "Feature",
      "properties": {
        "norad_id": 36097,
        "name": "INTELSAT 14 (IS-14)",
        "group": "intelsat",
        "lat": -0.03249432383390121,
        "lon": -62.75798260211868,
        "alt_km": 35776.438477830336,
        "timestamp": "2025-12-19T16:54:43.918783+00:00",
        "meta_object_name": "INTELSAT 14 (IS-14)",
        "meta_object_id": "2009-064A",
        "meta_epoch": "2025-12-19T06:12:07.354944",
        "meta_mean_motion": 1.00271449,
        "meta_eccentricity": 0.00024374,
        "meta_inclination": 0.0132,
        "meta_ra_of_asc_node": 348.8616,
        "meta_arg_of_pericenter": 289.9965,
        "meta_mean_anomaly": 217.2941,
        "meta_ephemeris_type": 0,
        "meta_classification_type": "U",
        "meta_norad_cat_id": 36097,
        "meta_element_set_no": 999,
        "meta_rev_at_epoch": 5880,
        "meta_bstar": 0,
        "meta_mean_motion_dot": -2.49e-06,
        "meta_mean_motion_ddot": 0,
        "tle_line1": "1 36097U 09064A   25353.25841846 -.00000249  00000+0  00000+0 0  9994",
        "tle_line2": "2 36097   0.0132 348.8616 0002437 289.9965 217.2941  1.00271449 58808"
      },
      "geometry": {
        "type": "Point",
        "coordinates": [
          -62.75798260211868,
          -0.03249432383390121
        ]
      }
    },
    {
      "type": "Feature",
      "properties": {
        "norad_id": 36106,
        "name": "INTELSAT 15 (IS-15)",
        "group": "intelsat",
        "lat": 0.043331095981246806,
        "lon": 67.39484823190044,
        "alt_km": 35793.73750810937,
        "timestamp": "2025-12-19T16:54:43.918795+00:00",
        "meta_object_name": "INTELSAT 15 (IS-15)",
        "meta_object_id": "2009-067A",
        "meta_epoch": "2025-12-18T22:15:40.597344",
        "meta_mean_motion": 1.00272402,
        "meta_eccentricity": 0.0002124,
        "meta_inclination": 0.0179,
        "meta_ra_of_asc_node": 357.1967,
        "meta_arg_of_pericenter": 280.3625,
        "meta_mean_anomaly": 229.3026,
        "meta_ephemeris_type": 0,
        "meta_classification_type": "U",
        "meta_norad_cat_id": 36106,
        "meta_element_set_no": 999,
        "meta_rev_at_epoch": 3942,
        "meta_bstar": 0,
        "meta_mean_motion_dot": -1.6e-06,
        "meta_mean_motion_ddot": 0,
        "tle_line1": "1 36106U 09067A   25352.92755321 -.00000160  00000+0  00000+0 0  9995",
        "tle_line2": "2 36106   0.0179 357.1967 0002124 280.3625 229.3026  1.00272402 39428"
      },
      "geometry": {
        "type": "Point",
        "coordinates": [
          67.39484823190044,
          0.043331095981246806
        ]
      }
    },
    {
      "type": "Feature",
      "properties": {
        "norad_id": 36131,
        "name": "DIRECTV 12",
        "group": "intelsat",
        "lat": -0.008806583194687845,
        "lon": -120.49700751590183,
        "alt_km": 35787.27705135784,
        "timestamp": "2025-12-19T16:54:43.918808+00:00",
        "meta_object_name": "DIRECTV 12",
        "meta_object_id": "2009-075A",
        "meta_epoch": "2025-12-18T20:43:10.822080",
        "meta_mean_motion": 1.00271221,
        "meta_eccentricity": 4.242e-05,
        "meta_inclination": 0.0364,
        "meta_ra_of_asc_node": 131.9635,
        "meta_arg_of_pericenter": 232.6466,
        "meta_mean_anomaly": 291.1917,
        "meta_ephemeris_type": 0,
        "meta_classification_type": "U",
        "meta_norad_cat_id": 36131,
        "meta_element_set_no": 999,
        "meta_rev_at_epoch": 4474,
        "meta_bstar": 0,
        "meta_mean_motion_dot": -7.8e-07,
        "meta_mean_motion_ddot": 0,
        "tle_line1": "1 36131U 09075A   25352.86331970 -.00000078  00000+0  00000+0 0  9993",
        "tle_line2": "2 36131   0.0364 131.9635 0000424 232.6466 291.1917  1.00271221 44741"
      },
      "geometry": {
        "type": "Point",
        "coordinates": [
          -120.49700751590183,
          -0.008806583194687845
        ]
      }
    },
    {
      "type": "Feature",
      "properties": {
        "norad_id": 36397,
        "name": "INTELSAT 16 (IS-16)",
        "group": "intelsat",
        "lat": -0.03384628727873761,
        "lon": -93.97046930655164,
        "alt_km": 35778.30777069784,
        "timestamp": "2025-12-19T16:54:43.918820+00:00",
        "meta_object_name": "INTELSAT 16 (IS-16)",
        "meta_object_id": "2010-006A",
        "meta_epoch": "2025-12-19T06:15:04.684032",
        "meta_mean_motion": 1.00272178,
        "meta_eccentricity": 0.0001823,
        "meta_inclination": 0.0098,
        "meta_ra_of_asc_node": 330.8842,
        "meta_arg_of_pericenter": 299.0041,
        "meta_mean_anomaly": 195.8014,
        "meta_ephemeris_type": 0,
        "meta_classification_type": "U",
        "meta_norad_cat_id": 36397,
        "meta_element_set_no": 999,
        "meta_rev_at_epoch": 5785,
        "meta_bstar": 0,
        "meta_mean_motion_dot": -2.2e-06,
        "meta_mean_motion_ddot": 0,
        "tle_line1": "1 36397U 10006A   25353.26047088 -.00000220  00000+0  00000+0 0  9991",
        "tle_line2": "2 36397   0.0098 330.8842 0001823 299.0041 195.8014  1.00272178 57855"
      },
      "geometry": {
        "type": "Point",
        "coordinates": [
          -93.97046930655164,
          -0.03384628727873761
        ]
      }
    },
    {
      "type": "Feature",
      "properties": {
        "norad_id": 37185,
        "name": "XM-5",
        "group": "intelsat",
        "lat": -0.05977877603115748,
        "lon": -132.94815240743523,
        "alt_km": 35785.06337666501,
        "timestamp": "2025-12-19T16:54:43.918832+00:00",
        "meta_object_name": "XM-5",
        "meta_object_id": "2010-053A",
        "meta_epoch": "2025-12-18T20:22:12.372384",
        "meta_mean_motion": 1.00271564,
        "meta_eccentricity": 0.00020077,
        "meta_inclination": 0.0627,
        "meta_ra_of_asc_node": 271.9192,
        "meta_arg_of_pericenter": 232.5831,
        "meta_mean_anomaly": 133.5627,
        "meta_ephemeris_type": 0,
        "meta_classification_type": "U",
        "meta_norad_cat_id": 37185,
        "meta_element_set_no": 999,
        "meta_rev_at_epoch": 5567,
        "meta_bstar": 0,
        "meta_mean_motion_dot": 2e-08,
        "meta_mean_motion_ddot": 0,
        "tle_line1": "1 37185U 10053A   25352.84875431  .00000002  00000+0  00000+0 0  9990",
        "tle_line2": "2 37185   0.0627 271.9192 0002007 232.5831 133.5627  1.00271564 55671"
      },
      "geometry": {
        "type": "Point",
        "coordinates": [
          -132.94815240743523,
          -0.05977877603115748
        ]
      }
    }
  ]
}